[{"OBJECT_NAME":"CINEMA","OBJECT_ID":"2012-048G","EPOCH":"2026-03-09T23:21:38.910528","MEAN_MOTION":15.41758997,"ECCENTRICITY":0.00644529,"INCLINATION":64.645,"RA_OF_ASC_NODE":61.8658,"ARG_OF_PERICENTER":204.5071,"MEAN_ANOMALY":155.2999,"EPHEMERIS_TYPE":0,"CLASSIFICATION_TYPE":"U","NORAD_CAT_ID":38764,"ELEMENT_SET_NO":999,"REV_AT_EPOCH":10191,"BSTAR":0.00076174658,"MEAN_MOTION_DOT":0.0003483,"MEAN_MOTION_DDOT":0},{"OBJECT_NAME":"STARLINK-31196","OBJECT_ID":"2024-019R","EPOCH":"2026-03-09T22:04:18.582528","MEAN_MOTION":15.27578344,"ECCENTRICITY":6.141e-5,"INCLINATION":42.998,"RA_OF_ASC_NODE":247.9598,"ARG_OF_PERICENTER":273.4281,"MEAN_ANOMALY":86.6501,"EPHEMERIS_TYPE":0,"CLASSIFICATION_TYPE":"U","NORAD_CAT_ID":58868,"ELEMENT_SET_NO":999,"REV_AT_EPOCH":11909,"BSTAR":1.7753529e-5,"MEAN_MOTION_DOT":2.27e-6,"MEAN_MOTION_DDOT":0}]
